TIANMU-1 08             
1 57400U 23101B   26066.00237819  .00000346  00000+0  14775-4 0  9993
2 57400  97.2717 118.7901 0006380 134.2174 225.9592 15.29204229146020
STARLINK-35122          
1 65510U 25198U   26068.83249320  .00029535  00000+0  10047-2 0  9992
2 65510  53.1579 270.2142 0001321  86.7414 273.3738 15.30220325 28640
